SL-8 R/B                
1 11574U 79089B   26062.57251226  .00000325  00000+0  10634-3 0  9993
2 11574  74.0674 102.3686 0017125 275.6578  84.2626 14.42345935435224
SL-14 R/B               
1 11672U 80005B   26062.68738472  .00000746  00000+0  72909-4 0  9998
2 11672  82.5155 312.9293 0015647 177.8499 182.2791 14.90922044475597
SL-8 R/B                
1 12139U 81003B   26062.70862944  .00022464  00000+0  58012-3 0  9990
2 12139  82.9390 295.5547 0262728 199.4098 159.6988 15.10699071313779
SL-3 R/B                
1 12465U 81046B   26062.74918691  .00016358  00000+0  38248-3 0  9998
2 12465  81.2309 296.8777 0020061  42.3691 317.9096 15.41810412437515
SL-3 R/B                
1 12904U 81103B   26062.78702397  .00008204  00000+0  36504-3 0  9992
2 12904  81.1571 220.3559 0012502 308.2017  51.8087 15.21286648972334
SL-3 R/B                
1 13068U 82013B   26062.73183272  .00006182  00000+0  26834-3 0  9993
2 13068  81.1769 167.7515 0022332 197.6776 162.3682 15.21941698403448
SL-3 R/B                
1 13154U 82039B   26062.69317096  .00003691  00000+0  22329-3 0  9992
2 13154  81.1580 222.8751 0029884 343.9984  16.0294 15.10037867380738
SL-3 R/B                
1 13403U 82079B   26062.69497156  .00009107  00000+0  36411-3 0  9994
2 13403  81.1474 200.1538 0024826 185.0499 175.0488 15.24689614376785
SL-14 R/B               
1 13553U 82092B   26062.73094362  .00000655  00000+0  70824-4 0  9998
2 13553  82.5703 146.9721 0019382 324.5302 152.1074 14.86659408328044
SL-3 R/B                
1 13819U 83010B   26062.28954010  .00019262  00000+0  39033-3 0  9999
2 13819  81.1059  10.0905 0018467  71.2910 289.0337 15.46076306356957
SL-3 R/B                
1 14208U 83075B   26062.76777108  .00014977  00000+0  39695-3 0  9999
2 14208  97.6132  67.1214 0019723 249.0916 110.8218 15.38242996329249
COSMOS 1536             
1 14699U 84013A   26062.61276385  .00008392  00000+0  34723-3 0  9992
2 14699  82.5438 113.8915 0012820 307.3578  52.6491 15.23730274271691
SL-14 R/B               
1 14820U 84027B   26062.56543012  .00000631  00000+0  69372-4 0  9998
2 14820  82.5381 250.7582 0017893 358.7280   1.3888 14.85968921246726
SL-8 R/B                
1 15483U 85006B   26062.74708582  .00000204  00000+0  76492-4 0  9994
2 15483  74.0434 272.0844 0018694 191.2425 247.4254 14.37778344153177
SL-12 R/B(2)            
1 15772U 85042D   26062.59506191  .00000177  00000+0  10122-3 0  9996
2 15772  71.1064 100.6061 0033521 138.1204  30.3058 14.21980541113526
SL-14 R/B               
1 15945U 85069B   26062.82133637  .00000716  00000+0  78224-4 0  9991
2 15945  82.5272  30.4506 0017959 207.6581 152.3682 14.86424880171966
SL-16 R/B               
1 16182U 85097B   26062.71188084 -.00000009  00000+0  19394-4 0  9999
2 16182  71.0037 153.1384 0009957 266.8264 204.2668 14.16599704 86386
